C/2020 Q1 (Borisov),e,142.9387,52.4005,10.0157,62.13062,0.0020125,0.97876021,0.0000,08/15.0223/2020,2000,g 14.0,4.0
# From MPEC 2023-CD7
C/2020 Q2 (PANSTARRS),e,3.3354,179.8198,118.2589,10.60998,0.0285189,0.48919650,51.6794,01/11.0/2025,2000,g 12.0,3.2
# From MPEC 2024-F34
C/2020 R2 (PANSTARRS),e,53.2218,195.1146,211.8743,432.1675,0.0001097,0.98912976,0.0000,02/25.3894/2022,2000,g  9.0,4.0
# From MPEC 2022-K19
C/2020 R4 (ATLAS),e,164.4138,323.2436,46.5489,98.08353,0.0010146,0.98958329,0.0000,03/02.3716/2021,2000,g 13.5,4.0
# From MPEC 2023-C45
P/2020 R5 (PANSTARRS),e,11.4396,272.9398,82.7649,4.992378,0.0883574,0.31341851,149.2069,01/11.0/2025,2000,g  9.5,6.0
# From MPEC 2021-Y10
C/2020 R6 (Rankin),e,82.8650,12.2145,272.0031,293.5903,0.0001959,0.98930774,0.0000,09/07.0463/2019,2000,g 11.0,4.0
# From MPEC 2024-PC5
C/2020 R7 (ATLAS),e,114.9031,268.3096,347.7909,25064,0.0000002,0.99988217,0.0000,09/16.1231/2022,2000,g  7.0,3.2
# From MPEC 2021-BE3
P/2020 S1 (PANSTARRS),e,13.7168,129.4986,255.1348,6.000715,0.0670501,0.50715698,97.5350,01/11.0/2025,2000,g 14.0,4.0
# From MPEC 2022-ST7
C/2020 S2 (PANSTARRS),e,22.3866,197.7043,202.4032,10.24750,0.0300453,0.82807662,44.4896,01/11.0/2025,2000,g 17.0,4.0
# From MPEC 2024-JU4
C/2020 S3 (Erasmus),e,20.0420,222.5569,350.0457,142.4648,0.0005796,0.99723557,0.0000,12/11.3902/2020,2000,g 13.5,3.2
# From MPEC 2024-N80
C/2020 S4 (PANSTARRS),h,02/09.4459/2023,20.5689,117.6893,21.0355,1.002450,3.369873,2000,8.5,3.2
# From MPEC 2021-BE3
P/2020 S5 (PANSTARRS),e,12.3411,316.0301,53.2773,4.057598,0.1205870,0.33761204,194.9199,01/11.0/2025,2000,g 14.5,4.0
# From MPEC 2021-BE3
P/2020 S7 (PANSTARRS),e,16.0735,328.0875,40.6545,5.035856,0.0872156,0.40980684,132.1186,01/11.0/2025,2000,g 14.5,4.0
# From MPEC 2021-P47
C/2020 S8 (Lemmon),e,108.5355,24.0338,160.1533,242.6426,0.0002608,0.99028907,0.0000,04/10.5094/2021,2000,g 12.5,4.0
# From MPEC 2022-TD3
C/2020 T2 (Palomar),e,27.8381,83.0506,150.3700,274.6241,0.0002166,0.99251789,0.0000,07/10.5500/2021,2000,g 11.0,3.2
# From MPEC 2021-N06
P/2020 T3 (PANSTARRS),e,7.2992,73.9932,357.0693,3.516238,0.1494812,0.59248137,216.7521,01/11.0/2025,2000,g 18.0,3.2
# From MPEC 2021-N06
C/2020 T4 (PANSTARRS),h,07/05.8949/2021,83.8448,50.6161,79.5757,1.000571,2.188520,2000,13.0,3.2
# From MPEC 2021-BE3
C/2020 T5 (Lemmon),e,66.5462,237.8304,90.3821,630.8415,0.0000622,0.99699350,0.0000,10/08.1372/2020,2000,g 16.0,4.0
# From MPEC 2021-N06
P/2020 U2 (PANSTARRS),e,6.4195,342.8342,84.7419,3.777833,0.1342270,0.51141670,198.0949,01/11.0/2025,2000,g 18.0,4.0
# From MPEC 2021-W31
C/2020 U3 (Rankin),e,30.1399,282.6092,124.4747,67.56581,0.0017747,0.96620885,2.5463,01/11.0/2025,2000,g 15.0,4.0
# From MPEC 2024-TD8
C/2020 U4 (PANSTARRS),h,04/09.8444/2022,167.0050,120.4015,70.1566,1.000982,5.361241,2000,7.0,4.0
# From MPEC 2024-GJ3
C/2020 U5 (PANSTARRS),e,97.3066,107.3136,75.4607,6578,0.0000018,0.99942883,0.0000,04/28.2146/2022,2000,g  8.0,4.0
# From MPEC 2025-A40
C/2020 V2 (ZTF),h,05/08.4868/2023,131.6130,212.3840,162.4337,1.000934,2.228792,2000,4.9,4.0
# From MPEC 2023-D72
P/2020 V3 (PANSTARRS),e,23.0258,198.2645,249.7062,8.404150,0.0404542,0.25789145,57.7108,01/11.0/2025,2000,g  8.3,4.0
# From MPEC 2024-F34
P/2020 V4 (Rankin),e,14.2402,203.4877,257.1925,9.392577,0.0342395,0.45150703,43.5124,01/11.0/2025,2000,g  9.0,4.0
# From MPEC 2021-BE3
P/2020 W1 (Rankin),e,10.7783,124.3888,265.3575,7.224849,0.0507529,0.26578722,88.1205,01/11.0/2025,2000,g 10.0,4.0
# From MPEC 2025-AE4
C/2020 W5 (Lemmon),h,11/30.5896/2020,88.6282,75.4442,24.5852,1.002182,3.370286,2000,15.0,4.0
# From MPEC 2024-PC5
P/2020 WJ5 (Lemmon),e,22.2882,177.7773,338.0465,6.015050,0.0668106,0.17197891,86.2521,01/11.0/2025,2000,g  8.5,4.0
# From MPEC 2024-F34
P/2020 X1 (ATLAS),e,31.6950,55.9824,323.5259,4.535190,0.1020495,0.36469962,166.9077,01/11.0/2025,2000,g 13.0,4.0
# From MPEC 2024-A43
C/2020 X2 (ATLAS),e,18.1860,105.3625,347.5238,16.52478,0.0146724,0.76822866,22.2428,01/11.0/2025,2000,g 10.6,4.0
# From MPEC 2021-S45
C/2020 X4 (Leonard),e,80.6486,161.9387,140.3105,40.64036,0.0038042,0.87143436,5.7725,01/11.0/2025,2000,g  9.0,4.0
# From MPEC 2024-YC7
C/2020 Y2 (ATLAS),e,101.1948,26.5346,266.4122,1374,0.0000193,0.99771097,0.0000,06/17.9332/2022,2000,g  6.5,4.0
# From MPEC 2021-R75
C/2020 Y3 (ATLAS),e,83.1274,191.3773,341.8568,137.8971,0.0006087,0.98556229,0.0000,12/03.2377/2020,2000,g 13.5,4.0
# From MPEC 2025-A40
C/2021 A1 (Leonard),h,01/03.6139/2022,132.7623,255.9150,225.1476,1.000209,0.615941,2000,8.5,4.0
# From MPEC 2025-A40
C/2021 A2 (NEOWISE),e,107.0413,125.0847,338.7793,228.0248,0.0002862,0.99379654,0.0000,01/21.9955/2021,2000,g 13.5,4.0
# From MPEC 2022-ED3
C/2021 A4 (NEOWISE),e,111.6223,307.0932,204.7410,42.44234,0.0035646,0.97291035,0.0000,03/19.4946/2021,2000,g 16.0,4.0
# From MPEC 2021-BE3
P/2021 A5 (PANSTARRS),e,18.1880,328.8112,61.4943,3.046783,0.1853283,0.13988019,281.4029,01/11.0/2025,2000,g 15.0,4.0
# From MPEC 2024-P23
C/2021 A6 (PANSTARRS),e,75.5713,164.0387,351.6105,9945,0.0000010,0.99920320,0.0000,05/02.8837/2021,2000,g  7.0,4.0
# From MPEC 2022-M88
C/2021 A7 (NEOWISE),e,78.1998,154.4260,355.9868,1804,0.0000129,0.99891112,0.0000,07/15.1358/2021,2000,g 10.0,4.0
# From MPEC 2025-AE4
C/2021 A9 (PANSTARRS),h,12/03.4206/2023,158.0162,314.8444,211.5834,1.000671,7.762024,2000,6.0,4.0
# From MPEC 2021-N06
C/2021 A10 (NEOWISE),e,151.9798,188.8051,82.5918,89.42571,0.0011655,0.98584812,0.0000,03/14.7610/2021,2000,g 19.0,4.0
# From MPEC 2022-L66
C/2021 B2 (PANSTARRS),e,38.0851,120.4546,335.0769,398.5843,0.0001239,0.99369463,0.0000,05/04.8013/2021,2000,g 14.0,4.0
# From MPEC 2021-N06
C/2021 B3 (NEOWISE),e,119.4735,67.2713,293.5721,34.22213,0.0049232,0.93670622,6.9093,01/11.0/2025,2000,g 13.5,4.0
# From MPEC 2023-KD6
C/2021 C1 (Rankin),e,143.0426,186.8490,336.0883,2161,0.0000098,0.99839273,0.0000,12/06.1029/2020,2000,g 11.5,4.0
# From MPEC 2021-U31
P/2021 C2 (PANSTARRS),e,21.9408,66.4561,78.6997,9.541768,0.0334396,0.48817585,47.3777,01/11.0/2025,2000,g 12.0,4.0
# From MPEC 2024-M41
C/2021 C3 (Catalina),e,122.1922,181.8760,356.9844,60.57663,0.0020905,0.96247284,2.9886,01/11.0/2025,2000,g 14.0,4.0
# From MPEC 2022-M88
C/2021 C4 (ATLAS),e,132.8378,194.2460,320.0594,5157,0.0000027,0.99912854,0.0000,01/16.4506/2021,2000,g  9.0,4.0
# From MPEC 2024-N80
C/2021 C5 (PANSTARRS),e,50.7998,323.6731,270.9011,1697,0.0000141,0.99809004,0.0000,02/10.9616/2023,2000,g  9.0,4.0
# From MPEC 2022-YB4
C/2021 C6 (Lemmon),e,164.6068,332.3349,203.8300,2669,0.0000071,0.99877050,0.0000,11/12.0719/2021,2000,g 12.0,4.0
# From MPEC 2022-F14
C/2021 D1 (SWAN),e,31.3706,311.1889,72.4110,102.0389,0.0009562,0.99111568,0.0000,02/27.5701/2021,2000,g 13.0,4.0
# From MPEC 2023-J29
C/2021 D2 (ZTF),h,02/03.7918/2022,83.7781,305.6387,125.0493,1.001484,2.948014,2000,9.0,4.0
# From MPEC 2022-UY9
A/2021 E2,e,167.4916,190.7739,342.2489,204.1864,0.0003378,0.98882217,0.0000,12/09.3861/2020,2000,g 15.0,2.0
# From MPEC 2024-GJ3
C/2021 E3 (ZTF),h,06/11.4623/2022,112.5244,104.4840,228.8135,1.000132,1.777237,2000,8.5,4.0
# From MPEC 2024-N80
A/2021 E4,e,116.3723,171.1509,48.2700,505.3908,0.0000867,0.99074292,0.0000,04/24.8365/2022,2000,g 13.5,22.0
# From MPEC 2022-QD9
C/2021 F1 (Lemmon-PANSTARRS),e,107.3041,203.5140,146.9248,246.7067,0.0002544,0.99595143,0.0000,04/06.7323/2022,2000,g 13.5,4.0
# From MPEC 2021-J72
C/2021 G1 (Leonard),e,131.5466,270.6974,107.4268,71.40720,0.0016334,0.95201901,2.0749,01/11.0/2025,2000,g 14.0,4.0
# From MPEC 2025-AE4
C/2021 G2 (ATLAS),h,09/09.1515/2024,48.4713,221.0954,343.2701,1.000464,4.982361,2000,5.5,4.0
# From MPEC 2022-X67
C/2021 G3 (PANSTARRS),e,102.8705,147.3595,10.5828,8104,0.0000014,0.99936066,0.0000,10/17.8107/2021,2000,g 10.5,4.0
# From MPEC 2021-Y10
P/2021 HS (PANSTARRS),e,12.1544,262.3580,46.1343,4.193885,0.1147570,0.80940158,143.9904,01/11.0/2025,2000,g 22.0,4.0
# From MPEC 2022-C56
C/2021 J1 (Maury-Attard),e,92.7078,88.4318,147.2314,26.23884,0.0073331,0.93384370,10.4247,01/11.0/2025,2000,g 15.5,4.0
# From MPEC 2023-XP6
C/2021 J2 (PANSTARRS),e,156.2118,23.3190,171.9052,113.0826,0.0008196,0.95842695,0.9899,01/11.0/2025,2000,g 12.0,4.0
# From MPEC 2024-F34
P/2021 J3 (ATLAS),e,14.5185,111.0475,125.7023,8.898361,0.0371312,0.44915189,75.0490,01/11.0/2025,2000,g  7.0,4.0
# From MPEC 2022-O08
C/2021 K1 (ATLAS),e,16.2719,140.9216,184.2450,12.62072,0.0219825,0.80177477,29.6558,01/11.0/2025,2000,g 11.0,4.0
# From MPEC 2022-O01
C/2021 K2 (MASTER),h,09/09.4425/2021,100.8698,282.3335,343.3080,1.000681,5.466004,2000,8.0,4.0
# From MPEC 2022-L66
C/2021 K3 (Catalina),h,02/03.8288/2022,134.7802,114.6008,182.0371,1.004420,5.229566,2000,10.0,4.0
# From MPEC 2021-W31
P/2021 L2 (Leonard),e,21.0642,266.6525,51.4628,4.048020,0.1210152,0.52070383,153.4231,01/11.0/2025,2000,g 17.0,4.0
# From MPEC 2024-H50
C/2021 L3 (Borisov),h,02/14.9510/2022,78.5487,345.0098,91.6446,1.004696,8.459507,2000,6.0,4.0
# From MPEC 2022-TA0
P/2021 N1 (ZTF),e,11.4861,301.1380,21.2350,2.979332,0.1916574,0.67576649,252.1220,01/11.0/2025,2000,g 19.0,4.0
# From MPEC 2024-GJ3
P/2021 N2 (Fuls),e,13.0609,221.7360,177.6098,6.945971,0.0538399,0.45236029,62.1127,01/11.0/2025,2000,g  9.5,4.0
# From MPEC 2022-YB4
C/2021 N3 (PANSTARRS),e,26.7582,337.5164,304.6482,142.1968,0.0005813,0.95981195,0.9344,01/11.0/2025,2000,g  8.5,4.0
# From MPEC 2022-A21
C/2021 O1 (Nishimura),e,27.5837,41.5708,74.3983,3772,0.0000043,0.99979246,0.0000,08/14.5874/2021,2000,g 10.5,4.0
# From MPEC 2022-L66
C/2021 O3 (PANSTARRS),h,04/21.2136/2022,56.8143,188.8653,299.9831,1.000045,0.285329,2000,10.5,4.0
# From MPEC 2024-F34
C/2021 P1 (PANSTARRS),e,51.6269,359.7019,40.5209,2943,0.0000062,0.99851207,0.0000,06/02.6583/2022,2000,g 11.0,4.0
# From MPEC 2024-NE4
C/2021 P2 (PANSTARRS),e,150.0594,32.0892,76.7239,10964,0.0000009,0.99953768,0.0000,01/23.1022/2023,2000,g  9.0,4.0
# From MPEC 2024-GJ3
P/2021 P3 (PANSTARRS),e,27.1601,358.2483,334.0464,4.412442,0.1063373,0.33842583,140.6967,01/11.0/2025,2000,g 14.0,4.0
# From MPEC 2023-A50
